BEIDOU-2 IGSO-5         
1 37948U 11073A   26175.65702808 -.00000196  00000+0  00000+0 0  9995
2 37948  47.6633 271.4526 0114223 222.0346 107.5350  1.00272136 53204
LUCH-5A                 
1 37951U 11074B   26176.63453922 -.00000048  00000+0  00000+0 0  9995
2 37951   8.7753  73.6852 0002663  30.0986 205.3458  1.00272190 53132
BEIDOU-2 G5             
1 38091U 12008A   26177.17830617  .00000064  00000+0  00000+0 0  9996
2 38091   3.5966  69.6505 0008661 276.0937  51.4711  1.00275587 52458
BEIDOU-2 M3             
1 38250U 12018A   26176.78001372 -.00000106  00000+0  00000+0 0  9996
2 38250  55.7497 304.5848 0020315 273.3590  86.3983  1.86229866 96100
BEIDOU-2 M4             
1 38251U 12018B   26175.10144578 -.00000109  00000+0  00000+0 0  9991
2 38251  55.6511 303.8559 0011644 274.0414  85.8160  1.86229591 96078
SES-5                   
1 38652U 12036A   26176.52586043  .00000044  00000+0  00000+0 0  9997
2 38652   0.0440 319.4688 0002254 132.5340  15.9396  1.00270102 44547
BEIDOU-2 M6             
1 38775U 12050B   26176.95897983 -.00000089  00000+0  00000+0 0  9994
2 38775  56.5518  62.6042 0013535 358.1579   1.8786  1.86231118 93471
GSAT-10                 
1 38779U 12051B   26177.18298619 -.00000154  00000+0  00000+0 0  9999
2 38779   0.0602 259.3805 0008148 191.2034 332.6263  1.00272100 50189
NAVSTAR 67 (USA 239)    
1 38833U 12053A   26176.79182065  .00000033  00000+0  00000+0 0  9990
2 38833  53.5874 143.2468 0180792  65.8883 295.9596  2.00567681 99617
GSAT0103 (GALILEO-FM3)  
1 38857U 12055A   26175.51466267 -.00000036  00000+0  00000+0 0  9990
2 38857  55.8110 101.3445 0004768 306.0836  53.8462  1.70473530 85137
BEIDOU-2 G6             
1 38953U 12059A   26177.11195580 -.00000169  00000+0  00000+0 0  9993
2 38953   4.4446  73.4318 0009745 328.6393 356.5103  1.00271444 49994
LUCH-5B                 
1 38977U 12061A   26176.94952363 -.00000136  00000+0  00000+0 0  9996
2 38977  10.5027  49.7963 0002473 136.6735  53.1826  1.00272691 49697
COSMOS 2485 [GLONASS-M] 
1 39155U 13019A   26174.94888940 -.00000068  00000+0  00000+0 0  9990
2 39155  65.4235  73.3773 0023016 233.5300 126.2899  2.13103180102423
NAVSTAR 68 (USA 242)    
1 39166U 13023A   26176.65900812 -.00000046  00000+0  00000+0 0  9996
2 39166  54.4973 268.6283 0141475  51.0602 310.2306  2.00563550 96051
IRNSS-1A                
1 39199U 13034A   26176.74993227  .00000048  00000+0  00000+0 0  9997
2 39199  35.7396  63.7472 0018406 178.4200 356.6391  1.00277689 47459
NAVSTAR 69 (USA 248)    
1 39533U 14008A   26177.15932725  .00000041  00000+0  00000+0 0  9996
2 39533  53.6559 148.9537 0084215 231.3935 127.8246  2.00560425 89866
ASTRA 5B                
1 39617U 14011B   26177.24250791  .00000148  00000+0  00000+0 0  9997
2 39617   0.0537 324.0285 0002201 114.2037 306.9076  1.00272240 44759
COSMOS 2492 [GLONASS-M] 
1 39620U 14012A   26174.90776451 -.00000082  00000+0  00000+0 0  9996
2 39620  65.2933 313.7069 0010214 323.0851  36.8355  2.13103141 95380
IRNSS-1B                
1 39635U 14017A   26173.75560031  .00000117  00000+0  00000+0 0  9992
2 39635  28.9065 240.3095 0023496 164.9008 193.0039  1.00268591 44840
LUCH-5V                 
1 39727U 14023A   26177.11412248 -.00000263  00000+0  00000+0 0  9994
2 39727   5.1552  69.6600 0002426  48.4303 291.9939  1.00272083 44442
NAVSTAR 70 (USA 251)    
1 39741U 14026A   26176.43776981 -.00000104  00000+0  00000+0 0  9998
2 39741  56.4940 331.1963 0038118 326.3837  33.3680  2.00560534 88704
COSMOS 2500 [GLONASS-M] 
1 40001U 14032A   26176.95444264 -.00000085  00000+0  00000+0 0  9997
2 40001  65.2269 313.3837 0007692 185.3330 174.6480  2.13105954 93644
NAVSTAR 71 (USA 256)    
1 40105U 14045A   26177.02815772 -.00000068  00000+0  00000+0 0  9992
2 40105  55.3587  88.1127 0033686 118.2750 242.0678  2.00559107 86251
GSAT0201 (GALILEO 5)    
1 40128U 14050A   26175.42373058 -.00000085  00000+0  00000+0 0  9990
2 40128  48.8673 273.1394 1675706 179.6719 180.5031  1.85520133 78454
GSAT0202 (GALILEO 6)    
1 40129U 14050B   26176.75721538 -.00000070  00000+0  00000+0 0  9992
2 40129  48.8826 272.1703 1677011 180.4531 179.4274  1.85520808 80640
IRNSS-1C                
1 40269U 14061A   26176.68398682 -.00000155  00000+0  00000+0 0  9995
2 40269   6.5386  88.7700 0022592   3.4967 150.6688  1.00267985 42772
NAVSTAR 72 (USA 258)    
1 40294U 14068A   26176.89738811 -.00000085  00000+0  00000+0 0  9997
2 40294  56.9936  30.6191 0067228  70.9208 289.8621  2.00576883 85389
COSMOS 2501 [GLONASS-K] 
1 40315U 14075A   26177.21663207  .00000105  00000+0  00000+0 0  9994
2 40315  63.6151 190.0588 0022237 210.4369 149.4832  2.13109644 90043
NAVSTAR 73 (USA 260)    
1 40534U 15013A   26177.03735334  .00000087  00000+0  00000+0 0  9990
2 40534  53.1674 203.8114 0109747  40.1916 320.6840  2.00550980 82004
GSAT0203 (GALILEO 7)    
1 40544U 15017A   26175.25180748 -.00000098  00000+0  00000+0 0  9993
2 40544  56.7845 341.4029 0002115 270.3304  89.6420  1.70476337 69322
GSAT0204 (GALILEO 8)    
1 40545U 15017B   26174.92103312 -.00000099  00000+0  00000+0 0  9990
2 40545  56.7909 341.4306 0002093 241.0442 118.9316  1.70475870 32360
